[Satellite]
VERSION=1.1
NAME=CORIOLIS
NICKNAME=CORIOLIS
TLE1=1 27640U 03001A   18020.90910073 -.00000015  00000-0  13893-4 0  9998
TLE2=2 27640  98.7406  33.1422 0014805  45.1751   7.3364 14.18967517778847
